start=new Date('2022-11-12T00:00:00.000Z').valueOf();
sats=[{"RA_OF_ASC_NODE":"29.6399","ECCENTRICITY":"0.00021890","RCS_SIZE":"LARGE","MEAN_ELEMENT_THEORY":"SGP4","TLE_LINE1":"1 51776U 22017J   22315.54338366  .00002057  00000-0  14744-3 0  9996","OBJECT_NAME":"STARLINK-3608","PERIOD":"95.440","MEAN_ANOMALY":"321.4170","ELEMENT_SET_NO":"999","EPHEMERIS_TYPE":"0","CENTER_NAME":"EARTH","GP_ID":"217492812","NORAD_CAT_ID":"51776","DECAY_DATE":null,"INCLINATION":"53.2196","COUNTRY_CODE":"US","PERIAPSIS":"538.345","MEAN_MOTION":"15.08802765","TIME_SYSTEM":"UTC","FILE":"3651775","BSTAR":"0.00014744000000","OBJECT_TYPE":"PAYLOAD","ARG_OF_PERICENTER":"38.6978","OBJECT_ID":"2022-017J","APOAPSIS":"541.374","SITE":"AFWTR","EPOCH":"2022-11-11T13:02:28.348224","MEAN_MOTION_DDOT":"0.0000000000000","SEMIMAJOR_AXIS":"6917.994","CLASSIFICATION_TYPE":"U","REF_FRAME":"TEME","TLE_LINE2":"2 51776  53.2196  29.6399 0002189  38.6978 321.4170 15.08802765 39274","REV_AT_EPOCH":"3927","MEAN_MOTION_DOT":"0.00002057","LAUNCH_DATE":"2022-02-25"},{"RCS_SIZE":"LARGE","ECCENTRICITY":"0.00021480","RA_OF_ASC_NODE":"29.3107","OBJECT_NAME":"STARLINK-3625","TLE_LINE1":"1 51777U 22017K   22315.61695587  .00000852  00000-0  71629-4 0  9993","MEAN_ELEMENT_THEORY":"SGP4","ELEMENT_SET_NO":"999","PERIOD":"95.438","MEAN_ANOMALY":"326.9731","CENTER_NAME":"EARTH","EPHEMERIS_TYPE":"0","GP_ID":"217493058","NORAD_CAT_ID":"51777","COUNTRY_CODE":"US","DECAY_DATE":null,"INCLINATION":"53.2200","TIME_SYSTEM":"UTC","PERIAPSIS":"538.280","MEAN_MOTION":"15.08833169","BSTAR":"0.00007162900000","FILE":"3651775","OBJECT_TYPE":"PAYLOAD","ARG_OF_PERICENTER":"33.1396","OBJECT_ID":"2022-017K","SITE":"AFWTR","APOAPSIS":"541.252","MEAN_MOTION_DDOT":"0.0000000000000","SEMIMAJOR_AXIS":"6917.901","EPOCH":"2022-11-11T14:48:24.987168","REF_FRAME":"TEME","CLASSIFICATION_TYPE":"U","TLE_LINE2":"2 51777  53.2200  29.3107 0002148  33.1396 326.9731 15.08833169 39314","REV_AT_EPOCH":"3931","LAUNCH_DATE":"2022-02-25","MEAN_MOTION_DOT":"0.00000852"},{"RCS_SIZE":"LARGE","ECCENTRICITY":"0.00023410","RA_OF_ASC_NODE":"18.0514","OBJECT_NAME":"STARLINK-3615","TLE_LINE1":"1 51778U 22017L   22315.89483886  .00006180  00000-0  40629-3 0  9996","MEAN_ELEMENT_THEORY":"SGP4","ELEMENT_SET_NO":"999","PERIOD":"95.439","MEAN_ANOMALY":"326.1020","CENTER_NAME":"EARTH","EPHEMERIS_TYPE":"0","GP_ID":"217493814","NORAD_CAT_ID":"51778","COUNTRY_CODE":"US","INCLINATION":"53.2185","DECAY_DATE":null,"PERIAPSIS":"538.194","MEAN_MOTION":"15.08817711","TIME_SYSTEM":"UTC","BSTAR":"0.00040629000000","FILE":"3651775","OBJECT_TYPE":"PAYLOAD","OBJECT_ID":"2022-017L","ARG_OF_PERICENTER":"34.0122","SITE":"AFWTR","APOAPSIS":"541.433","MEAN_MOTION_DDOT":"0.0000000000000","SEMIMAJOR_AXIS":"6917.949","EPOCH":"2022-11-11T21:28:34.077504","REF_FRAME":"TEME","CLASSIFICATION_TYPE":"U","TLE_LINE2":"2 51778  53.2185  18.0514 0002341  34.0122 326.1020 15.08817711 39314","REV_AT_EPOCH":"3931","LAUNCH_DATE":"2022-02-25","MEAN_MOTION_DOT":"0.00006180"},{"OBJECT_TYPE":"PAYLOAD","ARG_OF_PERICENTER":"31.3938","OBJECT_ID":"2022-017M","SITE":"AFWTR","APOAPSIS":"541.619","MEAN_MOTION_DDOT":"0.0000000000000","SEMIMAJOR_AXIS":"6917.928","EPOCH":"2022-11-11T12:57:09.692064","REF_FRAME":"TEME","CLASSIFICATION_TYPE":"U","TLE_LINE2":"2 51779  53.2195  29.6633 0002639  31.3938 328.7212 15.08824414 39275","REV_AT_EPOCH":"3927","LAUNCH_DATE":"2022-02-25","MEAN_MOTION_DOT":"0.00000306","RCS_SIZE":"LARGE","ECCENTRICITY":"0.00026390","RA_OF_ASC_NODE":"29.6633","OBJECT_NAME":"STARLINK-3611","TLE_LINE1":"1 51779U 22017M   22315.53969551  .00000306  00000-0  37372-4 0  9992","MEAN_ELEMENT_THEORY":"SGP4","ELEMENT_SET_NO":"999","PERIOD":"95.439","MEAN_ANOMALY":"328.7212","EPHEMERIS_TYPE":"0","CENTER_NAME":"EARTH","GP_ID":"217493533","NORAD_CAT_ID":"51779","COUNTRY_CODE":"US","DECAY_DATE":null,"INCLINATION":"53.2195","PERIAPSIS":"537.967","TIME_SYSTEM":"UTC","MEAN_MOTION":"15.08824414","BSTAR":"0.00003737200000","FILE":"3651775"},{"MEAN_MOTION_DOT":"-0.00000957","LAUNCH_DATE":"2022-02-25","TLE_LINE2":"2 51780  53.2172  29.7121 0002363  36.5740 323.5413 15.08820002 39126","REV_AT_EPOCH":"3912","EPOCH":"2022-11-11T12:42:39.553344","MEAN_MOTION_DDOT":"0.0000000000000","SEMIMAJOR_AXIS":"6917.942","CLASSIFICATION_TYPE":"U","REF_FRAME":"TEME","OBJECT_TYPE":"PAYLOAD","OBJECT_ID":"2022-017N","ARG_OF_PERICENTER":"36.5740","APOAPSIS":"541.441","SITE":"AFWTR","MEAN_MOTION":"15.08820002","PERIAPSIS":"538.172","TIME_SYSTEM":"UTC","FILE":"3651496","BSTAR":"-0.00004205900000","GP_ID":"217436496","NORAD_CAT_ID":"51780","INCLINATION":"53.2172","DECAY_DATE":null,"COUNTRY_CODE":"US","PERIOD":"95.439","MEAN_ANOMALY":"323.5413","ELEMENT_SET_NO":"999","EPHEMERIS_TYPE":"0","CENTER_NAME":"EARTH","ECCENTRICITY":"0.00023630","RA_OF_ASC_NODE":"29.7121","RCS_SIZE":"LARGE","MEAN_ELEMENT_THEORY":"SGP4","TLE_LINE1":"1 51780U 22017N   22315.52962446 -.00000957  00000-0 -42059-4 0  9991","OBJECT_NAME":"STARLINK-3617"},{"PERIAPSIS":"537.967","MEAN_MOTION":"15.08856597","TIME_SYSTEM":"UTC","BSTAR":"0.00138950000000","FILE":"3651496","NORAD_CAT_ID":"51781","GP_ID":"217434745","COUNTRY_CODE":"US","DECAY_DATE":null,"INCLINATION":"53.2161","ELEMENT_SET_NO":"999","MEAN_ANOMALY":"326.0782","PERIOD":"95.437","CENTER_NAME":"EARTH","EPHEMERIS_TYPE":"0","RCS_SIZE":"LARGE","RA_OF_ASC_NODE":"29.6782","ECCENTRICITY":"0.00024980","OBJECT_NAME":"STARLINK-3580","MEAN_ELEMENT_THEORY":"SGP4","TLE_LINE1":"1 51781U 22017P   22315.53600643  .00021906  00000-0  13895-2 0  9990","LAUNCH_DATE":"2022-02-25","MEAN_MOTION_DOT":"0.00021906","TLE_LINE2":"2 51781  53.2161  29.6782 0002498  34.0370 326.0782 15.08856597 39123","REV_AT_EPOCH":"3912","SEMIMAJOR_AXIS":"6917.830","MEAN_MOTION_DDOT":"0.0000000000000","EPOCH":"2022-11-11T12:51:50.955552","REF_FRAME":"TEME","CLASSIFICATION_TYPE":"U","ARG_OF_PERICENTER":"34.0370","OBJECT_ID":"2022-017P","OBJECT_TYPE":"PAYLOAD","SITE":"AFWTR","APOAPSIS":"541.423"},{"TLE_LINE1":"1 51782U 22017Q   22315.61974091  .00000884  00000-0  73685-4 0  9998","MEAN_ELEMENT_THEORY":"SGP4","OBJECT_NAME":"STARLINK-3616","ECCENTRICITY":"0.00021150","RA_OF_ASC_NODE":"39.2799","RCS_SIZE":"LARGE","CENTER_NAME":"EARTH","EPHEMERIS_TYPE":"0","MEAN_ANOMALY":"322.8842","PERIOD":"95.438","ELEMENT_SET_NO":"999","DECAY_DATE":null,"INCLINATION":"53.2183","COUNTRY_CODE":"US","NORAD_CAT_ID":"51782","GP_ID":"217493315","BSTAR":"0.00007368500000","FILE":"3651775","PERIAPSIS":"538.323","TIME_SYSTEM":"UTC","MEAN_MOTION":"15.08826795","APOAPSIS":"541.249","SITE":"AFWTR","ARG_OF_PERICENTER":"37.2296","OBJECT_ID":"2022-017Q","OBJECT_TYPE":"PAYLOAD","CLASSIFICATION_TYPE":"U","REF_FRAME":"TEME","EPOCH":"2022-11-11T14:52:25.614624","SEMIMAJOR_AXIS":"6917.921","MEAN_MOTION_DDOT":"0.0000000000000","REV_AT_EPOCH":"3890","TLE_LINE2":"2 51782  53.2183  39.2799 0002115  37.2296 322.8842 15.08826795 38904","MEAN_MOTION_DOT":"0.00000884","LAUNCH_DATE":"2022-02-25"},{"EPOCH":"2022-11-11T12:46:35.078880","SEMIMAJOR_AXIS":"6917.951","MEAN_MOTION_DDOT":"0.0000000000000","CLASSIFICATION_TYPE":"U","REF_FRAME":"TEME","ARG_OF_PERICENTER":"32.8354","OBJECT_ID":"2022-017R","OBJECT_TYPE":"PAYLOAD","APOAPSIS":"541.324","SITE":"AFWTR","MEAN_MOTION_DOT":"0.00011429","LAUNCH_DATE":"2022-02-25","TLE_LINE2":"2 51783  53.2167  29.6928 0002180  32.8354 327.2773 15.08816882 39125","REV_AT_EPOCH":"3912","MEAN_ANOMALY":"327.2773","PERIOD":"95.439","ELEMENT_SET_NO":"999","EPHEMERIS_TYPE":"0","CENTER_NAME":"EARTH","RA_OF_ASC_NODE":"29.6928","ECCENTRICITY":"0.00021800","RCS_SIZE":"LARGE","TLE_LINE1":"1 51783U 22017R   22315.53235045  .00011429  00000-0  73545-3 0  9990","MEAN_ELEMENT_THEORY":"SGP4","OBJECT_NAME":"STARLINK-3628","TIME_SYSTEM":"UTC","PERIAPSIS":"538.308","MEAN_MOTION":"15.08816882","FILE":"3651496","BSTAR":"0.00073545000000","NORAD_CAT_ID":"51783","GP_ID":"217436246","INCLINATION":"53.2167","DECAY_DATE":null,"COUNTRY_CODE":"US"},{"PERIAPSIS":"538.742","TIME_SYSTEM":"UTC","MEAN_MOTION":"15.08827120","BSTAR":"0.00020386000000","FILE":"3651775","GP_ID":"217492813","NORAD_CAT_ID":"51784","COUNTRY_CODE":"US","INCLINATION":"53.2187","DECAY_DATE":null,"ELEMENT_SET_NO":"999","PERIOD":"95.438","MEAN_ANOMALY":"291.5849","EPHEMERIS_TYPE":"0","CENTER_NAME":"EARTH","RCS_SIZE":"LARGE","RA_OF_ASC_NODE":"39.3061","ECCENTRICITY":"0.00015070","OBJECT_NAME":"STARLINK-3632","TLE_LINE1":"1 51784U 22017S   22315.61604785  .00002957  00000-0  20386-3 0  9992","MEAN_ELEMENT_THEORY":"SGP4","LAUNCH_DATE":"2022-02-25","MEAN_MOTION_DOT":"0.00002957","TLE_LINE2":"2 51784  53.2187  39.3061 0001507  68.5304 291.5849 15.08827120 38995","REV_AT_EPOCH":"3899","MEAN_MOTION_DDOT":"0.0000000000000","SEMIMAJOR_AXIS":"6917.920","EPOCH":"2022-11-11T14:47:06.534240","REF_FRAME":"TEME","CLASSIFICATION_TYPE":"U","OBJECT_TYPE":"PAYLOAD","ARG_OF_PERICENTER":"68.5304","OBJECT_ID":"2022-017S","SITE":"AFWTR","APOAPSIS":"540.827"},{"MEAN_MOTION":"15.08832185","PERIAPSIS":"538.281","TIME_SYSTEM":"UTC","BSTAR":"0.00092171000000","FILE":"3651775","GP_ID":"217493059","NORAD_CAT_ID":"51785","COUNTRY_CODE":"US","DECAY_DATE":null,"INCLINATION":"53.2164","ELEMENT_SET_NO":"999","PERIOD":"95.438","MEAN_ANOMALY":"328.3629","EPHEMERIS_TYPE":"0","CENTER_NAME":"EARTH","RCS_SIZE":"LARGE","RA_OF_ASC_NODE":"28.8267","ECCENTRICITY":"0.00021510","OBJECT_NAME":"STARLINK-3646","TLE_LINE1":"1 51785U 22017T   22315.72738365  .00014408  00000-0  92171-3 0  9992","MEAN_ELEMENT_THEORY":"SGP4","LAUNCH_DATE":"2022-02-25","MEAN_MOTION_DOT":"0.00014408","TLE_LINE2":"2 51785  53.2164  28.8267 0002151  31.7493 328.3629 15.08832185 39150","REV_AT_EPOCH":"3915","MEAN_MOTION_DDOT":"0.0000000000000","SEMIMAJOR_AXIS":"6917.904","EPOCH":"2022-11-11T17:27:25.947360","REF_FRAME":"TEME","CLASSIFICATION_TYPE":"U","OBJECT_TYPE":"PAYLOAD","OBJECT_ID":"2022-017T","ARG_OF_PERICENTER":"31.7493","SITE":"AFWTR","APOAPSIS":"541.257"}];
